satname,norad_id,inclination_deg,eccentricity,mean_motion_rev_per_day,perigee_km,apogee_km,l1,l2
STARLINK-1572,46060,53.1597,0.0001182,15.30187811,474.4413933014048,476.0615343342515,1 46060U 20055AK  26202.29798251  .00000649  00000+0  34060-4 0  9998,2 46060  53.1597 213.5160 0001182  82.6324 277.4811 15.30187811329495
STARLINK-1573,46061,53.1598,0.000119,15.3170177,469.9197032182765,471.5497346873872,1 46061U 20055AL  26202.42909765  .00001497  00000+0  59977-4 0  9994,2 46061  53.1598 211.5974 0001190  80.6565 279.4571 15.31701770329562
STARLINK-1577,46063,53.1569,0.0001297,15.31713383,469.811807317451,471.5883956615771,1 46063U 20055AN  26202.26132857  .00005335  00000+0  18349-3 0  9990,2 46063  53.1569 212.3720 0001297  74.4908 285.6237 15.31713383329538
STARLINK-1583,46064,53.1585,0.0001616,15.31703938,469.6214796523009,471.83503290313,1 46064U 20055AP  26202.40586769  .00001338  00000+0  54891-4 0  9994,2 46064  53.1585 212.2029 0001616  63.2465 296.8702 15.31703938329544
STARLINK-1525,46066,53.0483,0.0004791,15.4687621,422.6109731693168,429.1305734176867,1 46066U 20055AR  26202.56210209  .00124407  00000+0  24038-2 0  9997,2 46066  53.0483 187.1351 0004791  25.0199 335.1039 15.46876210329884
STARLINK-1536,46070,53.1583,0.0001075,15.31707343,469.9818542882758,471.4543581361113,1 46070U 20055AV  26202.40715014  .00002031  00000+0  77174-4 0  9998,2 46070  53.1583 199.5802 0001075  83.3349 276.7775 15.31707343329729
STARLINK-1542,46073,53.159,0.0001246,15.31704716,469.8725687891538,471.5793054330816,1 46073U 20055AY  26202.30102543  .00001362  00000+0  55646-4 0  9993,2 46073  53.1590 203.0430 0001246  74.2913 285.8226 15.31704716329659
STARLINK-1549,46074,53.0476,0.0002709,15.34791986,459.6855551074477,463.3912912517271,1 46074U 20055AZ  26202.42582982  .00026612  00000+0  78606-3 0  9991,2 46074  53.0476 198.7793 0002709  52.7272 307.3976 15.34791986329704
STARLINK-1551,46075,53.1588,0.0001316,15.31699958,469.8388081964167,471.64143265451276,1 46075U 20055BA  26202.20240832  .00000478  00000+0  27185-4 0  9992,2 46075  53.1588 200.4711 0001316  83.1124 277.0027 15.31699958329688
STARLINK-1552,46076,53.1597,0.0001356,15.31695002,469.8261843032533,471.68360378491707,1 46076U 20055BB  26202.25362266  .00001501  00000+0  60130-4 0  9999,2 46076  53.1597 199.8150 0001356  92.3735 267.7422 15.31695002329682
STARLINK-1559,46077,53.0209,0.0004579,15.42193751,436.5143219682841,442.75803864680984,1 46077U 20055BC  26202.58884667  .00039790  00000+0  91771-3 0  9995,2 46077  53.0209 164.3808 0004579  53.6305 306.5121 15.42193751330161
STARLINK-1566,46079,53.1583,0.0001255,15.3169368,469.89929845428287,471.6183713088385,1 46079U 20055BE  26201.99726287  .00001102  00000+0  47285-4 0  9992,2 46079  53.1583 200.8623 0001255  99.7887 260.3257 15.31693680329668
STARLINK-1568,46080,53.056,0.0002917,15.57753138,392.1859068488775,396.1368657274379,1 46080U 20055BF  26202.03828760  .00038276  00000+0  51040-3 0  9994,2 46080  53.0560 111.1549 0002917 128.6679 231.4594 15.57753138330907
STARLINK-1578,46082,53.1595,0.0001226,15.31699123,469.902936878133,471.5822821583879,1 46082U 20055BH  26202.39315631  .00001410  00000+0  57192-4 0  9998,2 46082  53.1595 199.5393 0001226  87.7755 272.3387 15.31699123329713
STARLINK-1579,46083,53.159,0.0001382,15.31697642,469.8005085378045,471.69354008212485,1 46083U 20055BJ  26202.37945118  .00000629  00000+0  32022-4 0  9992,2 46083  53.1590 199.1363 0001382  83.4500 276.6659 15.31697642329719
STARLINK-1622,46128,52.9918,0.0005316,16.45705172,147.19910835368773,154.14053576690185,1 46128U 20057M   26203.08597360  .10593396  12589-4  26698-3 0  9995,2 46128  52.9918 267.4076 0005316 317.7592  42.3046 16.45705172328637
STARLINK-1623,46129,53.0347,0.0006288,15.89140566,300.4890694469759,308.89339423133697,1 46129U 20057N   26202.66668981  .00309404  00000+0  10182-2 0  9991,2 46129  53.0347 313.8196 0006288 325.8800  19.8941 15.89140566  6011
STARLINK-1596,46141,53.0315,0.0002363,15.67066887,365.7070101179752,368.89490409650443,1 46141U 20057AA  26202.54949433  .00069636  00000+0  64028-3 0  9995,2 46141  53.0315 302.5590 0002363 296.8441  63.2332 15.67066887328115
STARLINK-1597,46142,53.0361,0.0006145,15.87394077,305.48246242989535,313.7016814593144,1 46142U 20057AB  26202.66668981  .00224613  00000+0  81469-3 0  9991,2 46142  53.0361 353.8463 0006145 289.7913  52.1703 15.87394077  5963
STARLINK-1608,46146,53.1566,0.0004209,15.39951799,443.37933280148354,449.12410322430696,1 46146U 20057AF  26202.38787346  .00037732  00000+0  93817-3 0  9995,2 46146  53.1566  44.5099 0004209 125.4230 234.7168 15.39951799326709
STARLINK-1595,46159,53.0372,0.0004162,15.83695886,317.2115597880911,322.78708846429436,1 46159U 20057AU  26202.46060747  .00165036  00000+0  72178-3 0  9993,2 46159  53.0372 358.5173 0004162 275.0700  84.9847 15.83695886328577
STARLINK-1598,46160,53.0433,0.0005385,15.8139458,322.8855606432153,330.10645039015617,1 46160U 20057AV  26201.70523884  .00111233  00000+0  54607-3 0  9994,2 46160  53.0433 348.8282 0005385 321.7554  38.3085 15.81394580328633
STARLINK-1626,46167,53.0354,0.0007978,15.87962424,302.6620446717361,313.33043887230724,1 46167U 20057BC  26202.66668981  .00219698  00000+0  77457-3 0  9997,2 46167  53.0354 351.9710 0007978 303.5784 182.8100 15.87962424  5961
STARLINK-1633,46171,53.0229,0.0015152,16.1211122,231.02857689576194,251.08738536658166,1 46171U 20057BG  26202.98877812  .01067987  72323-3  95071-3 0  9998,2 46171  53.0229 307.1257 0015152 333.5137  26.5121 16.12111220329330
STARLINK-1640,46173,53.036,0.0004474,15.84069456,315.94992981233827,321.9424798640284,1 46173U 20057BJ  26202.61863535  .00199627  00000+0  85363-3 0  9995,2 46173  53.0360 358.6993 0004474 280.0395  80.0123 15.84069456327328
STARLINK-1641,46174,53.0464,0.0004285,15.69411213,357.694359041745,363.46944113912195,1 46174U 20057BK  26202.43576201  .00068135  00000+0  56935-3 0  9999,2 46174  53.0464 355.0800 0004285 305.0357  55.0257 15.69411213327367
STARLINK-1695,46329,53.0377,0.0006826,15.88485013,301.9667792830178,311.09268630662973,1 46329U 20062E   26202.66668981  .00244104  00000+0  83650-3 0  9995,2 46329  53.0377  34.8391 0006826 278.1303  81.2519 15.88485013  6011
STARLINK-1719,46331,53.0243,0.0006341,16.09305654,244.54664175426296,252.95085826242394,1 46331U 20062G   26203.05247826  .01020125  61511-3  11100-2 0  9997,2 46331  53.0243  29.0299 0006341 288.1166  71.9176 16.09305654326026
